[{"OBJECT_NAME":"STARLINK-5498","OBJECT_ID":"2023-021F","EPOCH":"2026-03-09T17:21:36.855936","MEAN_MOTION":14.98324975,"ECCENTRICITY":0.00034116,"INCLINATION":69.9995,"RA_OF_ASC_NODE":204.3534,"ARG_OF_PERICENTER":274.9157,"MEAN_ANOMALY":85.1613,"EPHEMERIS_TYPE":0,"CLASSIFICATION_TYPE":"U","NORAD_CAT_ID":55633,"ELEMENT_SET_NO":999,"REV_AT_EPOCH":16830,"BSTAR":-4.7725284e-5,"MEAN_MOTION_DOT":-6.62e-6,"MEAN_MOTION_DDOT":0},{"OBJECT_NAME":"COSMOS 2251 DEB","OBJECT_ID":"1993-036SS","EPOCH":"2026-03-09T22:59:54.978144","MEAN_MOTION":15.02003149,"ECCENTRICITY":0.00206055,"INCLINATION":74.0288,"RA_OF_ASC_NODE":253.6967,"ARG_OF_PERICENTER":277.4018,"MEAN_ANOMALY":234.4946,"EPHEMERIS_TYPE":0,"CLASSIFICATION_TYPE":"U","NORAD_CAT_ID":34449,"ELEMENT_SET_NO":999,"REV_AT_EPOCH":89999,"BSTAR":0.0029470254,"MEAN_MOTION_DOT":0.00038984,"MEAN_MOTION_DDOT":0}]
